[{"OBJECT_NAME":"KUIPER-00247","OBJECT_ID":"2025-301V","EPOCH":"2026-03-03T02:32:20.001984","MEAN_MOTION":15.36569578,"ECCENTRICITY":0.0014266,"INCLINATION":51.8599,"RA_OF_ASC_NODE":97.7806,"ARG_OF_PERICENTER":35.4877,"MEAN_ANOMALY":324.7056,"EPHEMERIS_TYPE":0,"CLASSIFICATION_TYPE":"U","NORAD_CAT_ID":67152,"ELEMENT_SET_NO":999,"REV_AT_EPOCH":1271,"BSTAR":0.00098871,"MEAN_MOTION_DOT":0.00035735,"MEAN_MOTION_DDOT":0},{"OBJECT_NAME":"KUIPER-00248","OBJECT_ID":"2025-301W","EPOCH":"2026-03-03T03:20:31.928352","MEAN_MOTION":15.37151134,"ECCENTRICITY":0.0010847,"INCLINATION":51.8674,"RA_OF_ASC_NODE":97.3016,"ARG_OF_PERICENTER":24.4108,"MEAN_ANOMALY":335.7391,"EPHEMERIS_TYPE":0,"CLASSIFICATION_TYPE":"U","NORAD_CAT_ID":67153,"ELEMENT_SET_NO":999,"REV_AT_EPOCH":1289,"BSTAR":0.00078225,"MEAN_MOTION_DOT":0.00028664,"MEAN_MOTION_DDOT":0},{"OBJECT_NAME":"KUIPER-00249","OBJECT_ID":"2025-301X","EPOCH":"2026-03-03T02:43:04.645344","MEAN_MOTION":15.37830029,"ECCENTRICITY":0.0010543,"INCLINATION":51.8635,"RA_OF_ASC_NODE":97.1138,"ARG_OF_PERICENTER":18.7278,"MEAN_ANOMALY":341.4095,"EPHEMERIS_TYPE":0,"CLASSIFICATION_TYPE":"U","NORAD_CAT_ID":67154,"ELEMENT_SET_NO":999,"REV_AT_EPOCH":1272,"BSTAR":0.0014199,"MEAN_MOTION_DOT":0.00053696,"MEAN_MOTION_DDOT":0},{"OBJECT_NAME":"KUIPER-00250","OBJECT_ID":"2025-301Y","EPOCH":"2026-03-03T04:00:01.999584","MEAN_MOTION":15.02121935,"ECCENTRICITY":0.0008835,"INCLINATION":51.8899,"RA_OF_ASC_NODE":99.5898,"ARG_OF_PERICENTER":34.0744,"MEAN_ANOMALY":39.6792,"EPHEMERIS_TYPE":0,"CLASSIFICATION_TYPE":"U","NORAD_CAT_ID":67155,"ELEMENT_SET_NO":999,"REV_AT_EPOCH":587,"BSTAR":-0.089892,"MEAN_MOTION_DOT":-0.01104107,"MEAN_MOTION_DDOT":0},{"OBJECT_NAME":"KUIPER-00251","OBJECT_ID":"2025-301Z","EPOCH":"2026-03-02T09:56:31.445376","MEAN_MOTION":15.37298711,"ECCENTRICITY":0.00111163,"INCLINATION":51.8652,"RA_OF_ASC_NODE":100.6833,"ARG_OF_PERICENTER":21.1073,"MEAN_ANOMALY":339.037,"EPHEMERIS_TYPE":0,"CLASSIFICATION_TYPE":"U","NORAD_CAT_ID":67156,"ELEMENT_SET_NO":999,"REV_AT_EPOCH":1280,"BSTAR":0.00049797988,"MEAN_MOTION_DOT":0.00018168,"MEAN_MOTION_DDOT":0},{"OBJECT_NAME":"KUIPER-00252","OBJECT_ID":"2025-301AA","EPOCH":"2026-03-03T01:57:33.605280","MEAN_MOTION":15.37081378,"ECCENTRICITY":0.0012404,"INCLINATION":51.8652,"RA_OF_ASC_NODE":97.6458,"ARG_OF_PERICENTER":29.9729,"MEAN_ANOMALY":330.1965,"EPHEMERIS_TYPE":0,"CLASSIFICATION_TYPE":"U","NORAD_CAT_ID":67157,"ELEMENT_SET_NO":999,"REV_AT_EPOCH":1271,"BSTAR":0.00081936,"MEAN_MOTION_DOT":0.00029997,"MEAN_MOTION_DDOT":0},{"OBJECT_NAME":"KUIPER-00261","OBJECT_ID":"2025-301AB","EPOCH":"2026-03-03T04:00:01.999584","MEAN_MOTION":15.00301996,"ECCENTRICITY":0.00105,"INCLINATION":51.8936,"RA_OF_ASC_NODE":99.8511,"ARG_OF_PERICENTER":33.9253,"MEAN_ANOMALY":159.2797,"EPHEMERIS_TYPE":0,"CLASSIFICATION_TYPE":"U","NORAD_CAT_ID":67158,"ELEMENT_SET_NO":999,"REV_AT_EPOCH":494,"BSTAR":-0.12961,"MEAN_MOTION_DOT":-0.01498799,"MEAN_MOTION_DDOT":0},{"OBJECT_NAME":"KUIPER-00265","OBJECT_ID":"2025-301AC","EPOCH":"2026-03-03T04:31:05.896416","MEAN_MOTION":14.79964481,"ECCENTRICITY":7.07e-5,"INCLINATION":51.9016,"RA_OF_ASC_NODE":114.3609,"ARG_OF_PERICENTER":46.4019,"MEAN_ANOMALY":313.7002,"EPHEMERIS_TYPE":0,"CLASSIFICATION_TYPE":"U","NORAD_CAT_ID":67159,"ELEMENT_SET_NO":999,"REV_AT_EPOCH":1252,"BSTAR":0.00063211,"MEAN_MOTION_DOT":4.604e-5,"MEAN_MOTION_DDOT":0},{"OBJECT_NAME":"KUIPER-00159","OBJECT_ID":"2026-030A","EPOCH":"2026-03-03T02:58:58.106496","MEAN_MOTION":15.35410511,"ECCENTRICITY":0.0004272,"INCLINATION":51.8837,"RA_OF_ASC_NODE":250.8209,"ARG_OF_PERICENTER":28.6851,"MEAN_ANOMALY":331.4369,"EPHEMERIS_TYPE":0,"CLASSIFICATION_TYPE":"U","NORAD_CAT_ID":67764,"ELEMENT_SET_NO":999,"REV_AT_EPOCH":408,"BSTAR":0.00072569,"MEAN_MOTION_DOT":0.00025053,"MEAN_MOTION_DDOT":0},{"OBJECT_NAME":"KUIPER-00160","OBJECT_ID":"2026-030B","EPOCH":"2026-03-03T03:00:22.073472","MEAN_MOTION":15.35295446,"ECCENTRICITY":0.0005204,"INCLINATION":51.8802,"RA_OF_ASC_NODE":250.8203,"ARG_OF_PERICENTER":36.1416,"MEAN_ANOMALY":323.992,"EPHEMERIS_TYPE":0,"CLASSIFICATION_TYPE":"U","NORAD_CAT_ID":67765,"ELEMENT_SET_NO":999,"REV_AT_EPOCH":408,"BSTAR":0.00021947,"MEAN_MOTION_DOT":7.263e-5,"MEAN_MOTION_DDOT":0},{"OBJECT_NAME":"KUIPER-00177","OBJECT_ID":"2026-030C","EPOCH":"2026-03-03T02:44:48.479136","MEAN_MOTION":15.36197651,"ECCENTRICITY":7.8e-5,"INCLINATION":51.8825,"RA_OF_ASC_NODE":250.7553,"ARG_OF_PERICENTER":10.6618,"MEAN_ANOMALY":349.4384,"EPHEMERIS_TYPE":0,"CLASSIFICATION_TYPE":"U","NORAD_CAT_ID":67766,"ELEMENT_SET_NO":999,"REV_AT_EPOCH":408,"BSTAR":0.00094651,"MEAN_MOTION_DOT":0.0003367,"MEAN_MOTION_DDOT":0},{"OBJECT_NAME":"KUIPER-00178","OBJECT_ID":"2026-030D","EPOCH":"2026-03-03T03:02:43.124928","MEAN_MOTION":15.35202261,"ECCENTRICITY":0.0005736,"INCLINATION":51.8824,"RA_OF_ASC_NODE":250.8354,"ARG_OF_PERICENTER":28.8085,"MEAN_ANOMALY":331.3216,"EPHEMERIS_TYPE":0,"CLASSIFICATION_TYPE":"U","NORAD_CAT_ID":67767,"ELEMENT_SET_NO":999,"REV_AT_EPOCH":408,"BSTAR":0.00078698,"MEAN_MOTION_DOT":0.00027031,"MEAN_MOTION_DDOT":0},{"OBJECT_NAME":"KUIPER-00180","OBJECT_ID":"2026-030E","EPOCH":"2026-03-03T03:39:58.432032","MEAN_MOTION":15.32186159,"ECCENTRICITY":0.0015311,"INCLINATION":51.8797,"RA_OF_ASC_NODE":250.9945,"ARG_OF_PERICENTER":49.6625,"MEAN_ANOMALY":310.5694,"EPHEMERIS_TYPE":0,"CLASSIFICATION_TYPE":"U","NORAD_CAT_ID":67768,"ELEMENT_SET_NO":999,"REV_AT_EPOCH":408,"BSTAR":-0.00017334,"MEAN_MOTION_DOT":-5.862e-5,"MEAN_MOTION_DDOT":0},{"OBJECT_NAME":"KUIPER-00197","OBJECT_ID":"2026-030F","EPOCH":"2026-03-03T02:47:37.895712","MEAN_MOTION":15.36073913,"ECCENTRICITY":0.0001285,"INCLINATION":51.8829,"RA_OF_ASC_NODE":250.7673,"ARG_OF_PERICENTER":59.8735,"MEAN_ANOMALY":300.2379,"EPHEMERIS_TYPE":0,"CLASSIFICATION_TYPE":"U","NORAD_CAT_ID":67769,"ELEMENT_SET_NO":999,"REV_AT_EPOCH":408,"BSTAR":0.0010228,"MEAN_MOTION_DOT":0.00036282,"MEAN_MOTION_DDOT":0},{"OBJECT_NAME":"KUIPER-00198","OBJECT_ID":"2026-030G","EPOCH":"2026-03-03T02:53:51.994752","MEAN_MOTION":15.35711676,"ECCENTRICITY":0.0002805,"INCLINATION":51.8804,"RA_OF_ASC_NODE":250.7915,"ARG_OF_PERICENTER":32.9417,"MEAN_ANOMALY":327.1743,"EPHEMERIS_TYPE":0,"CLASSIFICATION_TYPE":"U","NORAD_CAT_ID":67770,"ELEMENT_SET_NO":999,"REV_AT_EPOCH":408,"BSTAR":0.00076201,"MEAN_MOTION_DOT":0.00026585,"MEAN_MOTION_DDOT":0},{"OBJECT_NAME":"KUIPER-00199","OBJECT_ID":"2026-030H","EPOCH":"2026-03-03T01:47:49.962912","MEAN_MOTION":15.34047444,"ECCENTRICITY":0.0010245,"INCLINATION":51.8797,"RA_OF_ASC_NODE":251.2267,"ARG_OF_PERICENTER":42.3863,"MEAN_ANOMALY":317.7912,"EPHEMERIS_TYPE":0,"CLASSIFICATION_TYPE":"U","NORAD_CAT_ID":67771,"ELEMENT_SET_NO":999,"REV_AT_EPOCH":407,"BSTAR":0.0009574,"MEAN_MOTION_DOT":0.00031823,"MEAN_MOTION_DDOT":0},{"OBJECT_NAME":"KUIPER-00200","OBJECT_ID":"2026-030J","EPOCH":"2026-03-03T02:37:02.188704","MEAN_MOTION":15.36710499,"ECCENTRICITY":0.0001603,"INCLINATION":51.8807,"RA_OF_ASC_NODE":250.717,"ARG_OF_PERICENTER":203.5913,"MEAN_ANOMALY":156.5,"EPHEMERIS_TYPE":0,"CLASSIFICATION_TYPE":"U","NORAD_CAT_ID":67772,"ELEMENT_SET_NO":999,"REV_AT_EPOCH":408,"BSTAR":0.00078341,"MEAN_MOTION_DOT":0.00028248,"MEAN_MOTION_DDOT":0}]
