KUIPER-00247            
1 67152U 25301V   26062.10578706  .00035735  00000+0  98871-3 0  9990
2 67152  51.8599  97.7806 0014266  35.4877 324.7056 15.36569578 12713
KUIPER-00248            
1 67153U 25301W   26062.13925843  .00028664  00000+0  78225-3 0  9996
2 67153  51.8674  97.3016 0010847  24.4108 335.7391 15.37151134 12892
KUIPER-00249            
1 67154U 25301X   26062.11324821  .00053696  00000+0  14199-2 0  9996
2 67154  51.8635  97.1138 0010543  18.7278 341.4095 15.37830029 12724
KUIPER-00250            
1 67155U 25301Y   26062.16668981 -.01104107  00000+0 -89892-1 0  9998
2 67155  51.8899  99.5898 0008835  34.0744  39.6792 15.02121935  5875
KUIPER-00251            
1 67156U 25301Z   26061.41425284  .00018168  00000+0  49798-3 0  9994
2 67156  51.8652 100.6833 0011116  21.1073 339.0370 15.37298711 12809
KUIPER-00252            
1 67157U 25301AA  26062.08163895  .00029997  00000+0  81936-3 0  9998
2 67157  51.8652  97.6458 0012404  29.9729 330.1965 15.37081378 12714
KUIPER-00261            
1 67158U 25301AB  26062.16668981 -.01498799  00000+0 -12961+0 0  9995
2 67158  51.8936  99.8511 0010500  33.9253 159.2797 15.00301996  4946
KUIPER-00265            
1 67159U 25301AC  26062.18826269  .00004604  00000+0  63211-3 0  9996
2 67159  51.9016 114.3609 0000707  46.4019 313.7002 14.79964481 12523
KUIPER-00159            
1 67764U 26030A   26062.12428364  .00025053  00000+0  72569-3 0  9993
2 67764  51.8837 250.8209 0004272  28.6851 331.4369 15.35410511  4082
KUIPER-00160            
1 67765U 26030B   26062.12525548  .00007263  00000+0  21947-3 0  9993
2 67765  51.8802 250.8203 0005204  36.1416 323.9920 15.35295446  4083
KUIPER-00177            
1 67766U 26030C   26062.11444999  .00033670  00000+0  94651-3 0  9996
2 67766  51.8825 250.7553 0000780  10.6618 349.4384 15.36197651  4088
KUIPER-00178            
1 67767U 26030D   26062.12688802  .00027031  00000+0  78698-3 0  9998
2 67767  51.8824 250.8354 0005736  28.8085 331.3216 15.35202261  4080
KUIPER-00180            
1 67768U 26030E   26062.15275963 -.00005862  00000+0 -17334-3 0  9992
2 67768  51.8797 250.9945 0015311  49.6625 310.5694 15.32186159  4081
KUIPER-00197            
1 67769U 26030F   26062.11641083  .00036282  00000+0  10228-2 0  9991
2 67769  51.8829 250.7673 0001285  59.8735 300.2379 15.36073913  4087
KUIPER-00198            
1 67770U 26030G   26062.12074068  .00026585  00000+0  76201-3 0  9996
2 67770  51.8804 250.7915 0002805  32.9417 327.1743 15.35711676  4086
KUIPER-00199            
1 67771U 26030H   26062.07488383  .00031823  00000+0  95740-3 0  9990
2 67771  51.8797 251.2267 0010245  42.3863 317.7912 15.34047444  4077
KUIPER-00200            
1 67772U 26030J   26062.10905311  .00028248  00000+0  78341-3 0  9995
2 67772  51.8807 250.7170 0001603 203.5913 156.5000 15.36710499  4089
